IRIDIUM 7               
1 24793U 97020B   25256.74528931  .00000263  00000+0  83706-4 0  9990
2 24793  86.3991 139.8405 0002065  94.5654 265.5779 14.35998633484603
IRIDIUM 5               
1 24795U 97020D   25256.88251790  .00006183  00000+0  49993-3 0  9999
2 24795  86.3883  42.7811 0107268 178.7166 181.4361 14.95104967498717
IRIDIUM 4               
1 24796U 97020E   25256.95178129  .00000267  00000+0  83627-4 0  9992
2 24796  86.3980 136.5742 0001998  88.3976 271.7450 14.36899598485218
IRIDIUM 914             
1 24836U 97030A   25256.77584270  .00000301  00000+0  87634-4 0  9997
2 24836  86.3977 144.9836 0000884  43.8423 316.2846 14.40942405619889
IRIDIUM 16              
1 24841U 97030F   25256.79926900  .00000288  00000+0  87168-4 0  9991
2 24841  86.4107 168.0875 0003970 110.0358 250.1268 14.38775668479749
IRIDIUM 911             
1 24842U 97030G   25256.79779291  .00000435  00000+0  11229-3 0  9999
2 24842  86.4531 166.7633 0014815 153.8218 206.3738 14.47733909487902
IRIDIUM 17              
1 24870U 97034B   25256.91048063  .00000392  00000+0  12355-3 0  9997
2 24870  86.4014 197.4582 0003909  85.1861 274.9783 14.37898995476338
IRIDIUM 920             
1 24871U 97034C   25256.86416160  .00000366  00000+0  10622-3 0  9995
2 24871  86.4049 176.5314 0012684 140.1956 220.0177 14.41605981479355
